SHIYAN-1 (SY-1)         
1 28220U 04012A   26068.73650539  .00016393  00000+0  54854-3 0  9991
2 28220  97.8764 140.5238 0005873  23.6952 336.4557 15.31043463195862
STARLINK-35757          
1 66270U 25247F   26068.60940295  .00017232  00000+0  59282-3 0  9991
2 66270  53.1590 191.6556 0001066  66.3916 293.7196 15.30186691 21070
